CCSDS_OMM_VERS,COMMENT,CREATION_DATE,ORIGINATOR,OBJECT_NAME,OBJECT_ID,CENTER_NAME,REF_FRAME,TIME_SYSTEM,MEAN_ELEMENT_THEORY,EPOCH,MEAN_MOTION,ECCENTRICITY,INCLINATION,RA_OF_ASC_NODE,ARG_OF_PERICENTER,MEAN_ANOMALY,EPHEMERIS_TYPE,CLASSIFICATION_TYPE,NORAD_CAT_ID,ELEMENT_SET_NO,REV_AT_EPOCH,BSTAR,MEAN_MOTION_DOT,MEAN_MOTION_DDOT,SEMIMAJOR_AXIS,PERIOD,APOAPSIS,PERIAPSIS,OBJECT_TYPE,RCS_SIZE,COUNTRY_CODE,LAUNCH_DATE,SITE,DECAY_DATE,FILE,GP_ID,TLE_LINE0,TLE_LINE1,TLE_LINE2,NORAD_KEY,JCAT,DeepCat,Satcat,Piece,Active,Type,Name,LDate,Parent,Owner,State,SDate,ExpandedStatus,DDate,ODate,Period,Perigee,PF,Apogee,AF,Inc,IF,OpOrbit,SATCAT_KEY
3.0,GENERATED VIA SPACE-TRACK.ORG API,2026-05-06T10:08:52,18 SPCS,ASTRA 1H,1999-033A,EARTH,TEME,UTC,SGP4,2026-05-06T01:09:06.556320,0.98946313,0.00072205,10.5457,48.7435,152.2104,38.3898,0,U,25785,999,5067,0.00000000000000,-0.00000182,0.0000000000000,42540.452,1455.335,36193.033,36131.6,PAYLOAD,LARGE,SES,1999-06-18,TTMTR,,5176958,322265897,0 ASTRA 1H,1 25785U 99033A   26126.04799255 -.00000182  00000-0  00000-0 0  9991,2 25785  10.5457  48.7435 0007220 152.2104  38.3898  0.98946313 50678,25785,S25785,-,25785,1999-033A,P,P      G,Astra 1H,1999 Jun 18,S25788,SESSA,L,1999 Jun 18 0829,In Earth orbit,-,2026 May  5 ,    1455.337 ,   36131, ,   36192, , 10.54 , ,GEO/ID,25785
3.0,GENERATED VIA SPACE-TRACK.ORG API,2026-05-06T14:56:52,18 SPCS,DIRECTV 1R,1999-056A,EARTH,TEME,UTC,SGP4,2026-05-06T11:40:40.257120,0.98959678,0.0004223,10.5765,48.8943,276.4706,296.7472,0,U,25937,999,9680,0.00000000000000,0.00000046,0.0000000000000,42536.621,1455.138,36176.45,36140.523,PAYLOAD,LARGE,US,1999-10-10,SEAL,,5177576,322307632,0 DIRECTV 1R,1 25937U 99056A   26126.48657705  .00000046  00000-0  00000+0 0  9993,2 25937  10.5765  48.8943 0004223 276.4706 296.7472  0.98959678 96802,25937,S25937,-,25937,1999-056A,P,P,DirecTV 1R,1999 Oct 10,S25938,DTVT,US,1999 Oct 10 0429,In Earth orbit,-,2026 May  4 ,    1455.147 ,   36140, ,   36176, , 10.57 , ,GEO/ID,25937
3.0,GENERATED VIA SPACE-TRACK.ORG API,2026-05-06T14:46:56,18 SPCS,RADUGA 18,1986-007A,EARTH,TEME,UTC,SGP4,2026-05-06T09:33:45.871776,0.98814757,0.0068989,10.5865,321.4741,200.5757,173.2269,0,U,16497,999,14545,0.00000000000000,-0.00000234,0.0000000000000,42578.201,1457.272,36493.808,35906.323,PAYLOAD,LARGE,CIS,1986-01-17,TTMTR,,5177290,322300501,0 RADUGA 18,1 16497U 86007A   26126.39844759 -.00000234  00000-0  00000+0 0  9993,2 16497  10.5865 321.4741 0068989 200.5757 173.2269  0.98814757145450,16497,S16497,-,16497,1986-007A,P,P,Raduga,1986 Jan 17,S16870,VVKOV,SU,1986 Jan 17 1657?,In Earth orbit,-,2026 May  4 ,    1457.267 ,   35906, ,   36493, , 10.59 , ,GEO/ID,16497
3.0,GENERATED VIA SPACE-TRACK.ORG API,2026-05-05T10:20:49,18 SPCS,APSTAR 2R (TELSTAR 10),1997-062A,EARTH,TEME,UTC,SGP4,2026-05-05T04:22:38.779392,0.99210349,0.00109976,10.6331,48.1465,300.9576,237.6782,0,U,25010,999,10410,0.00000000000000,-0.00000183,0.0000000000000,42464.941,1451.461,36133.507,36040.104,PAYLOAD,LARGE,PRC,1997-10-16,XSC,,5174649,322145029,0 APSTAR 2R (TELSTAR 10),1 25010U 97062A   26125.18239328 -.00000183  00000-0  00000-0 0  9997,2 25010  10.6331  48.1465 0010998 300.9576 237.6782  0.99210349104107,25010,S25010,-,25010,1997-062A,P,P,Apstar 2R,1997 Oct 16,S25011,APT,HK,1997 Oct 16 1939,In Earth orbit,-,2026 May  5 ,    1451.461 ,   36040, ,   36133, , 10.63 , ,GEO/ID,25010
3.0,GENERATED VIA SPACE-TRACK.ORG API,2026-05-06T14:56:52,18 SPCS,BSAT-2A,2001-011B,EARTH,TEME,UTC,SGP4,2026-05-06T11:18:24.041376,0.99174721,0.0003011,10.647,47.8708,234.4414,191.0767,0,U,26720,999,9156,0.00000000000000,0.00000034,0.0000000000000,42475.11,1451.983,36109.765,36084.186,PAYLOAD,LARGE,JPN,2001-03-08,FRGUI,,5177597,322307893,0 BSAT-2A,1 26720U 01011B   26126.47111159  .00000034  00000-0  00000+0 0  9992,2 26720  10.6470  47.8708 0003011 234.4414 191.0767  0.99174721 91560,26720,S26720,-,26720,2001-011B,P,P,BSAT-2a,2001 Mar  8,S26721,BSAT,J,2001 Mar  8 2327,In Earth orbit,-,2026 May  3 ,    1451.976 ,   36083, ,   36110, , 10.64 , ,GEO/ID,26720
3.0,GENERATED VIA SPACE-TRACK.ORG API,2026-05-06T14:56:52,18 SPCS,INTELSAT 709,1996-035A,EARTH,TEME,UTC,SGP4,2026-05-06T11:30:06.571008,0.99178016,0.0019051,10.6498,48.0234,237.1814,204.9091,0,U,23915,999,10899,0.00000000000000,-0.00000050,0.0000000000000,42474.17,1451.935,36176.952,36015.117,PAYLOAD,LARGE,ITSO,1996-06-15,FRGUI,,5177522,322306393,0 INTELSAT 709,1 23915U 96035A   26126.47924272 -.00000050  00000-0  00000+0 0  9992,2 23915  10.6498  48.0234 0019051 237.1814 204.9091  0.99178016108996,23915,S23915,-,23915,1996-035A,P,P,INTELSAT 709,1996 Jun 15,S23916,SESINTU,US,1996 Jun 15 0715,In Earth orbit,-,2026 May  4 ,    1451.925 ,   36014, ,   36176, , 10.65 , ,GEO/ID,23915
3.0,GENERATED VIA SPACE-TRACK.ORG API,2026-05-06T14:46:56,18 SPCS,STTW-1,1986-010A,EARTH,TEME,UTC,SGP4,2026-05-06T11:51:39.954816,1.00220986,0.0002912,10.6713,323.8304,316.707,212.4674,0,U,16526,999,15504,0.00000000000000,-0.00000237,0.0000000000000,42178.979,1436.825,35813.126,35788.561,PAYLOAD,LARGE,PRC,1986-02-01,XSC,,5177290,322301002,0 STTW-1,1 16526U 86010A   26126.49421244 -.00000237  00000-0  00000+0 0  9994,2 16526  10.6713 323.8304 0002912 316.7070 212.4674  1.00220986155040,16526,S16526,-,16526,1986-010A,P,P,Shiyong Tongbu Tongxin Wx.,1986 Feb  1,S16528,CNSA,CN,1986 Feb  1 1257?,In Earth orbit,-,2026 May  4 ,    1436.818 ,   35788, ,   35813, , 10.67 , ,GEO/ID,16526
3.0,GENERATED VIA SPACE-TRACK.ORG API,2026-05-06T14:46:56,18 SPCS,HIMAWARI 3 (GMS 3),1984-080A,EARTH,TEME,UTC,SGP4,2026-05-06T11:02:22.183008,0.99827922,0.0005427,10.6907,323.9461,128.3481,215.4613,0,U,15152,999,15222,0.00000000000000,-0.00000178,0.0000000000000,42289.624,1442.482,35934.439,35888.538,PAYLOAD,LARGE,JPN,1984-08-02,TNSTA,,5177272,322300762,0 HIMAWARI 3 (GMS 3),1 15152U 84080A   26126.45997897 -.00000178  00000-0  00000+0 0  9995,2 15152  10.6907 323.9461 0005427 128.3481 215.4613  0.99827922152224,15152,S15152,-,15152,1984-080A,P,P,Himawari 3,1984 Aug  2,S15157,JAXA,J,1984 Aug  2 2056,In Earth orbit,-,2026 May  5 ,    1442.476 ,   35888, ,   35934, , 10.69 , ,GEO/ID,15152
3.0,GENERATED VIA SPACE-TRACK.ORG API,2026-05-06T10:08:52,18 SPCS,BRAZILSAT B3,1998-006A,EARTH,TEME,UTC,SGP4,2026-05-06T01:10:28.924896,0.99220345,0.00015373,10.7149,47.9849,2.3703,194.1126,0,U,25152,999,4279,0.00000000000000,-0.00000144,0.0000000000000,42462.089,1451.315,36090.481,36077.426,PAYLOAD,LARGE,BRAZ,1998-02-04,FRGUI,,5176958,322265283,0 BRAZILSAT B3,1 25152U 98006A   26126.04894589 -.00000144  00000-0  00000-0 0  9992,2 25152  10.7149  47.9849 0001537   2.3703 194.1126  0.99220345 42791,25152,S25152,-,25152,1998-006A,P,P,Star One B3,1998 Feb  4,S25155,STONE,BR,1998 Feb  4 2350,In Earth orbit,-,2026 May  4 ,    1451.323 ,   36077, ,   36090, , 10.71 , ,GEO/ID,25152
3.0,GENERATED VIA SPACE-TRACK.ORG API,2026-05-06T10:08:52,18 SPCS,AMC-2 (GE-2),1997-002A,EARTH,TEME,UTC,SGP4,2026-05-06T02:43:49.969056,0.99474096,3.666e-05,10.7309,45.5872,89.2475,100.3435,0,U,24713,999,10700,0.00000000000000,-0.00000259,0.0000000000000,42389.846,1447.613,36013.265,36010.157,PAYLOAD,LARGE,SES,1997-01-30,FRGUI,,5176958,322265708,0 AMC-2 (GE-2),1 24713U 97002A   26126.11377279 -.00000259  00000-0  00000-0 0  9996,2 24713  10.7309  45.5872 0000367  89.2475 100.3435  0.99474096107003,24713,S24713,-,24713,1997-002A,P,P,AMC 2,1997 Jan 30,S24716,SESSAP,US,1997 Jan 30 2224,In Earth orbit,-,2026 May  5 ,    1447.609 ,   36010, ,   36012, , 10.73 , ,GEO/ID,24713
3.0,GENERATED VIA SPACE-TRACK.ORG API,2026-05-06T14:56:52,18 SPCS,INTELSAT 701,1993-066A,EARTH,TEME,UTC,SGP4,2026-05-06T07:06:38.592000,0.99317551,0.0004103,10.742,46.611,352.7394,205.2581,0,U,22871,999,11868,0.00000000000000,-0.00000075,0.0000000000000,42434.378,1449.895,36073.654,36038.832,PAYLOAD,LARGE,ITSO,1993-10-22,FRGUI,,5177489,322305479,0 INTELSAT 701,1 22871U 93066A   26126.29628000 -.00000075  00000-0  00000+0 0  9990,2 22871  10.7420  46.6110 0004103 352.7394 205.2581  0.99317551118682,22871,S22871,-,22871,1993-066A,P,P,INTELSAT 701,1993 Oct 22,S22906,SESINTU,US,1993 Oct 22 0706?,In Earth orbit,-,2026 May  5 ,    1449.890 ,   36038, ,   36073, , 10.74 , ,GEO/ID,22871
3.0,GENERATED VIA SPACE-TRACK.ORG API,2026-05-06T10:08:52,18 SPCS,ECHOSTAR 6,2000-038A,EARTH,TEME,UTC,SGP4,2026-05-06T06:15:37.921248,0.98790665,0.00058888,10.7709,46.9954,333.356,151.375,0,U,26402,999,9409,0.00000000000000,-0.00000007,0.0000000000000,42585.123,1457.628,36232.065,36181.91,PAYLOAD,LARGE,US,2000-07-14,AFETR,,5176958,322265551,0 ECHOSTAR 6,1 26402U 00038A   26126.26085557 -.00000007  00000-0  00000-0 0  9998,2 26402  10.7709  46.9954 0005889 333.3560 151.3750  0.98790665 94094,26402,S26402,-,26402,2000-038A,P,P      G,Echostar VI,2000 Jul 14,S26403,ECHOC,US,2000 Jul 14 0549,In Earth orbit,-,2026 May  4 ,    1457.638 ,   36181, ,   36232, , 10.77 , ,GEO/ID,26402
3.0,GENERATED VIA SPACE-TRACK.ORG API,2026-05-06T14:56:52,18 SPCS,INSAT 3B,2000-016B,EARTH,TEME,UTC,SGP4,2026-05-06T06:50:38.732928,0.99658388,0.0006157,10.7739,45.8777,244.8268,332.0486,0,U,26108,999,5101,0.00000000000000,-0.00000229,0.0000000000000,42337.571,1444.936,35985.503,35933.369,PAYLOAD,LARGE,IND,2000-03-21,FRGUI,,5177583,322307722,0 INSAT 3B,1 26108U 00016B   26126.28517052 -.00000229  00000-0  00000+0 0  9994,2 26108  10.7739  45.8777 0006157 244.8268 332.0486  0.99658388 51016,26108,S26108,-,26108,2000-016B,P,P,Insat 3B,2000 Mar 21,S26110,ISRO,IN,2000 Mar 22 0002,In Earth orbit,-,2026 May  4 ,    1444.926 ,   35932, ,   35985, , 10.77 , ,GEO/ID,26108
